43249,IRIDIUM 144,2018,100.4,860.0,+,86.39,Active,1,LEO,USA,USA,Commercial/Government,Communications,Falcon,1 43249U 18030A   25185.64383542  .00000013  00000+0 -23833-5 0  9998,2 43249  86.3949  75.7056 0002129  83.2121 276.9317 14.34217623380340,14.34217623,0.0002129,LEO
43250,IRIDIUM 149,2018,100.4,860.0,+,86.39,Active,1,LEO,USA,USA,Commercial/Government,Communications,Falcon,1 43250U 18030B   25185.23156613  .00000106  00000+0  30675-4 0  9995,2 43250  86.3950  75.8490 0002073  83.0620 277.0812 14.34217621380280,14.34217621,0.0002073,LEO
43251,IRIDIUM 157,2018,100.4,860.0,+,86.39,Active,1,LEO,USA,USA,Commercial/Government,Communications,Falcon,1 43251U 18030C   25185.66920674 -.00000034  00000+0 -19331-4 0  9997,2 43251  86.3947  75.7114 0002167  90.2764 269.8680 14.34217366380325,14.34217366,0.0002167,LEO
43252,IRIDIUM 140,2018,100.4,860.0,+,86.4,Active,1,LEO,USA,USA,Commercial/Government,Communications,Falcon,1 43252U 18030D   25185.68823396  .00000013  00000+0 -22816-5 0  9992,2 43252  86.3950  75.7171 0002149  79.9439 280.1999 14.34217567380384,14.34217567,0.0002149,LEO
43253,IRIDIUM 145,2018,100.4,860.0,+,86.39,Active,1,LEO,USA,USA,Commercial/Government,Communications,Falcon,1 43253U 18030E   25185.81508512 -.00000003  00000+0 -81151-5 0  9995,2 43253  86.3947  75.6365 0001700  77.9255 282.2132 14.34217400380334,14.342174,0.00017,LEO
43254,IRIDIUM 146,2018,100.4,860.0,+,86.39,Active,1,LEO,USA,USA,Commercial/Government,Communications,Falcon,1 43254U 18030F   25185.16814057  .00000026  00000+0  23293-5 0  9994,2 43254  86.3946  75.9207 0001759  78.1514 281.9879 14.34217608380252,14.34217608,0.0001759,LEO
43255,IRIDIUM 148,2018,100.4,860.0,+,86.4,Active,1,LEO,USA,USA,Commercial/Government,Communications,Falcon,1 43255U 18030G   25185.62481288  .00000147  00000+0  45322-4 0  9992,2 43255  86.3952  75.7677 0002026  88.3754 271.7674 14.34215114380357,14.34215114,0.0002026,LEO
43256,IRIDIUM 142,2018,100.4,860.0,+,86.39,Active,1,LEO,USA,USA,Commercial/Government,Communications,Falcon,1 43256U 18030H   25185.17448297  .00000008  00000+0 -42536-5 0  9998,2 43256  86.3949  75.8576 0001708  78.2394 281.8993 14.34217543380250,14.34217543,0.0001708,LEO
